{
    "links": {
        "self": "http://www.neowsapp.com/rest/v1/neo/3794964?api_key=iIulBulltgU6a56xZRHN4H3l9WmuAYTsLGpBGhQ2"
    },
    "id": "3794964",
    "neo_reference_id": "3794964",
    "name": "(2017 YC1)",
    "designation": "2017 YC1",
    "nasa_jpl_url": "http://ssd.jpl.nasa.gov/sbdb.cgi?sstr=3794964",
    "absolute_magnitude_h": 23.6,
    "estimated_diameter": {
        "kilometers": {
            "estimated_diameter_min": 0.0506471459,
            "estimated_diameter_max": 0.1132504611
        },
        "meters": {
            "estimated_diameter_min": 50.6471458835,
            "estimated_diameter_max": 113.2504610618
        },
        "miles": {
            "estimated_diameter_min": 0.0314706677,
            "estimated_diameter_max": 0.0703705522
        },
        "feet": {
            "estimated_diameter_min": 166.1651821003,
            "estimated_diameter_max": 371.5566426699
        }
    },
    "is_potentially_hazardous_asteroid": false,
    "close_approach_data": [
        {
            "close_approach_date": "2017-11-20",
            "close_approach_date_full": "2017-Nov-20 21:12",
            "epoch_date_close_approach": 1511212320000,
            "relative_velocity": {
                "kilometers_per_second": "7.2723046243",
                "kilometers_per_hour": "26180.2966474844",
                "miles_per_hour": "16267.4182140994"
            },
            "miss_distance": {
                "astronomical": "0.0653968021",
                "lunar": "25.4393560169",
                "kilometers": "9783222.298971527",
                "miles": "6079012.4490279926"
            },
            "orbiting_body": "Earth"
        }
    ],
    "orbital_data": {
        "orbit_id": "2",
        "orbit_determination_date": "2018-01-06 06:54:20",
        "first_observation_date": "2017-12-20",
        "last_observation_date": "2018-01-06",
        "data_arc_in_days": 17,
        "observations_used": 21,
        "orbit_uncertainty": "9",
        "minimum_orbit_intersection": ".0170708",
        "jupiter_tisserand_invariant": "4.981",
        "epoch_osculation": "2458111.5",
        "eccentricity": ".2623422002852921",
        "semi_major_axis": "1.294704439553341",
        "inclination": "2.627001202135178",
        "ascending_node_longitude": "205.7951659762682",
        "orbital_period": "538.0893329143562",
        "perihelion_distance": ".9550488281617817",
        "perihelion_argument": "169.4109624924728",
        "aphelion_distance": "1.634360050944901",
        "perihelion_time": "2458043.603455175425",
        "mean_anomaly": "45.42508955615624",
        "mean_motion": ".6690338908043334",
        "equinox": "J2000",
        "orbit_class": {
            "orbit_class_type": "APO",
            "orbit_class_description": "Near-Earth asteroid orbits which cross the Earth’s orbit similar to that of 1862 Apollo",
            "orbit_class_range": "a (semi-major axis) > 1.0 AU; q (perihelion) < 1.017 AU"
        }
    },
    "is_sentry_object": false
}